NORAD_CAT_ID,OBJECT_NAME,OBJECT_TYPE,EPOCH,MEAN_MOTION,ECCENTRICITY,INCLINATION,RA_OF_ASC_NODE,ARG_OF_PERICENTER,MEAN_ANOMALY,BSTAR,MEAN_MOTION_DOT,MEAN_MOTION_DDOT,TLE_LINE0,TLE_LINE1,TLE_LINE2,SEMIMAJOR_AXIS,PERIOD,APOGEE,PERIGEE,DECAYED
55965.0,STARLINK-5894,PAYLOAD,2023-10-03 22:00:00,15.06068362,0.0003232,69.9995,342.7895,275.5466,121.3369,-0.068307,-0.00923829,0.0,0 STARLINK-5894,1 55965U 23037BD  23276.91667824 -.00923829  00000-0 -68307-1 0  9998,2 55965  69.9995 342.7895 0003232 275.5466 121.3369 15.06068362  6033,6926.365,95.613,550.469,545.992,0.0
55965.0,STARLINK-5894,PAYLOAD,2023-10-04 14:00:01,15.04751837,0.0003335,69.9997,341.0899,278.4317,130.4158,-0.068168,-0.00892231,0.0,0 STARLINK-5894,1 55965U 23037BD  23277.58334491 -.00892231  00000-0 -68168-1 0  9990,2 55965  69.9997 341.0899 0003335 278.4317 130.4158 15.04751837  5751,6930.405,95.697,554.581,549.958,0.0
55965.0,STARLINK-5894,PAYLOAD,2023-10-04 22:00:01,15.04107057,0.0003217,69.9994,340.2414,275.1031,138.6131,-0.071335,-0.0091578,0.0,0 STARLINK-5894,1 55965U 23037BD  23277.91668981 -.00915780  00000-0 -71335-1 0  9996,2 55965  69.9994 340.2414 0003217 275.1031 138.6131 15.04107057  5815,6932.385,95.738,556.48,552.02,0.0
55965.0,STARLINK-5894,PAYLOAD,2023-10-05 06:00:00,15.03481977,0.0003253,69.9997,339.3939,272.9189,144.7448,-0.074524,-0.00938971,0.0,0 STARLINK-5894,1 55965U 23037BD  23278.25001157 -.00938971  00000-0 -74524-1 0  9990,2 55965  69.9997 339.3939 0003253 272.9189 144.7448 15.03481977 32036,6934.306,95.778,558.427,553.916,0.0
55965.0,STARLINK-5894,PAYLOAD,2023-10-05 14:00:01,15.02794406,0.0003292,69.9995,338.5477,278.4934,142.4303,-0.071707,-0.00890786,0.0,0 STARLINK-5894,1 55965U 23037BD  23278.58334491 -.00890786  00000-0 -71707-1 0  9997,2 55965  69.9995 338.5477 0003292 278.4934 142.4303 15.02794406  5919,6936.421,95.821,560.57,556.003,0.0
55965.0,STARLINK-5894,PAYLOAD,2023-10-05 22:00:00,15.02140357,0.000322,69.9997,337.7033,274.6555,148.729,-0.073182,-0.00893246,0.0,0 STARLINK-5894,1 55965U 23037BD  23278.91667824 -.00893246  00000-0 -73182-1 0  9996,2 55965  69.9997 337.7033 0003220 274.6555 148.7290 15.02140357  5967,6938.435,95.863,562.534,558.065,0.0
55965.0,STARLINK-5894,PAYLOAD,2023-10-06 14:00:01,15.00850163,0.000321,70.0,336.0166,273.4475,152.5722,-0.077456,-0.00912201,0.0,0 STARLINK-5894,1 55965U 23037BD  23279.58335648 -.00912201  00000-0 -77456-1 0  9997,2 55965  70.0000 336.0166 0003210 273.4475 152.5722 15.00850163 32235,6942.41,95.946,566.504,562.047,0.0
55965.0,STARLINK-5894,PAYLOAD,2023-10-06 22:00:01,15.00050135,0.0003125,70.0,335.1744,268.0146,158.1465,-0.043114,-0.00506387,0.0,0 STARLINK-5894,1 55965U 23037BD  23279.91668981 -.00506387  00000-0 -43114-1 0  9991,2 55965  70.0000 335.1744 0003125 268.0146 158.1465 15.00050135  6123,6944.879,95.997,568.914,564.573,0.0
55965.0,STARLINK-5894,PAYLOAD,2023-10-07 06:00:00,14.99402188,0.0002956,69.9999,334.3291,272.0304,153.3783,-0.013471,-0.00161616,0.0,0 STARLINK-5894,1 55965U 23037BD  23280.25001157 -.00161616  00000-0 -13471-1 0  9991,2 55965  69.9999 334.3291 0002956 272.0304 153.3783 14.99402188 32335,6946.879,96.038,570.798,566.691,0.0
55965.0,STARLINK-5894,PAYLOAD,2023-10-07 14:00:01,14.99278632,0.0002907,69.9999,333.4846,279.01,145.0999,0.0033543,0.00041167,0.0,0 STARLINK-5894,1 55965U 23037BD  23280.58334491  .00041167  00000-0  33543-2 0  9996,2 55965  69.9999 333.4846 0002907 279.0100 145.0999 14.99278632 32385,6947.261,96.046,571.145,567.106,0.0
55965.0,STARLINK-5894,PAYLOAD,2023-10-07 22:00:00,14.9927184,0.0002826,70.0,332.6431,272.571,150.181,0.0029039,0.00035592,0.0,0 STARLINK-5894,1 55965U 23037BD  23280.91667824  .00035592  00000-0  29039-2 0  9992,2 55965  70.0000 332.6431 0002826 272.5710 150.1810 14.99271840  5919,6947.282,96.047,571.11,567.184,0.0
55965.0,STARLINK-5894,PAYLOAD,2023-10-08 14:00:01,14.99296197,0.0002904,70.0,330.9596,277.1984,142.85,0.0006893,8.349e-05,0.0,0 STARLINK-5894,1 55965U 23037BD  23281.58334491  .00008349  00000-0  68930-3 0  9991,2 55965  70.0000 330.9596 0002904 277.1984 142.8500 14.99296197  5942,6947.207,96.045,571.089,567.054,0.0
55965.0,STARLINK-5894,PAYLOAD,2023-10-08 22:00:00,14.99276292,0.0002855,70.0001,330.1179,271.4451,147.2614,0.0039125,0.00048078,0.0,0 STARLINK-5894,1 55965U 23037BD  23281.91667824  .00048078  00000-0  39125-2 0  9993,2 55965  70.0001 330.1179 0002855 271.4451 147.2614 14.99276292 32582,6947.268,96.046,571.117,567.15,0.0
55965.0,STARLINK-5894,PAYLOAD,2023-10-09 14:00:01,14.99300948,0.0002873,69.9999,328.4344,275.2992,140.7141,-0.0010289,-0.00012661,0.0,0 STARLINK-5894,1 55965U 23037BD  23282.58334491 -.00012661  00000-0 -10289-2 0  9999,2 55965  69.9999 328.4344 0002873 275.2992 140.7141 14.99300948 32681,6947.192,96.045,571.053,567.061,0.0
55965.0,STARLINK-5894,PAYLOAD,2023-10-09 22:00:00,14.99263317,0.0002819,69.9998,327.5927,268.3532,146.309,0.0041591,0.00051119,0.0,0 STARLINK-5894,1 55965U 23037BD  23282.91667824  .00051119  00000-0  41591-2 0  9994,2 55965  69.9998 327.5927 0002819 268.3532 146.3090 14.99263317  5896,6947.308,96.047,571.132,567.215,0.0
55965.0,STARLINK-5894,PAYLOAD,2023-10-10 06:00:02,14.99340522,0.0002855,70.0,326.7509,269.6659,143.6892,-0.0035871,-0.00043758,0.0,0 STARLINK-5894,1 55965U 23037BD  23283.25002315 -.00043758  00000-0 -35871-2 0  9996,2 55965  70.0000 326.7509 0002855 269.6659 143.6892 14.99340522 32786,6947.07,96.042,570.918,566.951,0.0
55965.0,STARLINK-5894,PAYLOAD,2023-10-10 12:10:06,14.99304542,0.0002534,69.9981,326.1022,271.3638,88.7232,2.7756e-05,2.46e-06,0.0,0 STARLINK-5894,1 55965U 23037BD  23283.50701461  .00000246  00000-0  27756-4 0  9990,2 55965  69.9981 326.1022 0002534 271.3638  88.7232 14.99304542 32482,6947.181,96.045,570.806,567.285,0.0
55965.0,STARLINK-5894,PAYLOAD,2023-10-11 02:34:45,14.99296029,0.0002476,69.9987,324.5844,267.2441,92.8435,-9.2061e-06,-2.06e-06,0.0,0 STARLINK-5894,1 55965U 23037BD  23284.10747152 -.00000206  00000-0 -92061-5 0  9994,2 55965  69.9987 324.5844 0002476 267.2441  92.8435 14.99296029 32912,6947.207,96.045,570.792,567.352,0.0
55965.0,STARLINK-5894,PAYLOAD,2023-10-11 12:11:11,14.99296048,0.0002695,69.9976,323.5739,274.3378,85.7474,-7.7512e-05,-1.042e-05,0.0,0 STARLINK-5894,1 55965U 23037BD  23284.50777573 -.00001042  00000-0 -77512-4 0  9990,2 55965  69.9976 323.5739 0002695 274.3378  85.7474 14.99296048 32637,6947.207,96.045,570.944,567.2,0.0
55965.0,STARLINK-5894,PAYLOAD,2023-10-12 04:11:54,14.99302162,0.0002726,69.9972,321.8888,271.3394,88.7453,2.9146e-06,-5.8e-07,0.0,0 STARLINK-5894,1 55965U 23037BD  23285.17493765 -.00000058  00000-0  29146-5 0  9998,2 55965  69.9972 321.8888 0002726 271.3394  88.7453 14.99302162 33073,6947.188,96.045,570.947,567.159,0.0
55965.0,STARLINK-5894,PAYLOAD,2023-10-12 12:12:15,14.99307674,0.0002683,69.9974,321.0465,271.6428,88.4424,6.0968e-05,6.52e-06,0.0,0 STARLINK-5894,1 55965U 23037BD  23285.50851582  .00000652  00000-0  60968-4 0  9995,2 55965  69.9974 321.0465 0002683 271.6428  88.4424 14.99307674 32786,6947.171,96.044,570.9,567.172,0.0
55965.0,STARLINK-5894,PAYLOAD,2023-10-12 20:12:36,14.99341839,0.0002757,69.9981,320.2045,267.6861,92.3983,-0.00070635,-8.735e-05,0.0,0 STARLINK-5894,1 55965U 23037BD  23285.84209438 -.00008735  00000-0 -70635-3 0  9992,2 55965  69.9981 320.2045 0002757 267.6861  92.3983 14.99341839 32838,6947.066,96.042,570.846,567.015,0.0
55965.0,STARLINK-5894,PAYLOAD,2023-10-13 04:12:59,14.99295359,0.0002568,69.9979,319.3622,273.8935,86.1931,6.5041e-05,7.02e-06,0.0,0 STARLINK-5894,1 55965U 23037BD  23286.17569159  .00000702  00000-0  65041-4 0  9998,2 55965  69.9979 319.3622 0002568 273.8935  86.1931 14.99295359 33229,6947.209,96.045,570.858,567.29,0.0
55965.0,STARLINK-5894,PAYLOAD,2023-10-13 12:13:22,14.99280901,0.000261,69.9977,318.5187,264.9424,95.1438,-9.9185e-05,-1.307e-05,0.0,0 STARLINK-5894,1 55965U 23037BD  23286.50928946 -.00001307  00000-0 -99185-4 0  9998,2 55965  69.9977 318.5187 0002610 264.9424  95.1438 14.99280901 33270,6947.254,96.046,570.932,567.306,0.0
55965.0,STARLINK-5894,PAYLOAD,2023-10-13 20:14:06,14.99045324,0.0003554,69.9974,317.6777,340.2886,19.8136,-0.0025242,-0.00030643,0.0,0 STARLINK-5894,1 55965U 23037BD  23286.84312840 -.00030643  00000-0 -25242-2 0  9991,2 55965  69.9974 317.6777 0003554 340.2886  19.8136 14.99045324 33322,6947.982,96.061,572.316,567.377,0.0
55965.0,STARLINK-5894,PAYLOAD,2023-10-14 02:38:48,14.98772231,0.0002824,69.9983,317.0057,276.4032,83.6805,-0.0053585,-0.00064178,0.0,0 STARLINK-5894,1 55965U 23037BD  23287.11028911 -.00064178  00000-0 -53585-2 0  9996,2 55965  69.9983 317.0057 0002824 276.4032  83.6805 14.98772231 33368,6948.826,96.079,572.653,568.728,0.0
55965.0,STARLINK-5894,PAYLOAD,2023-10-14 12:15:28,14.98731034,0.0002608,69.9981,315.995,267.7978,92.2883,-0.0052609,-0.00062953,0.0,0 STARLINK-5894,1 55965U 23037BD  23287.51074460 -.00062953  00000-0 -52609-2 0  9995,2 55965  69.9981 315.9950 0002608 267.7978  92.2883 14.98731034 33084,6948.953,96.081,572.63,569.006,0.0
55965.0,STARLINK-5894,PAYLOAD,2023-10-15 04:16:37,14.98658501,0.0002776,69.9985,314.3119,273.707,86.3771,-0.0049407,-0.0005905,0.0,0 STARLINK-5894,1 55965U 23037BD  23288.17820945 -.00059050  00000-0 -49407-2 0  9991,2 55965  69.9985 314.3119 0002776 273.7070  86.3771 14.98658501 33520,6949.177,96.086,572.971,569.113,0.0
55965.0,STARLINK-5894,PAYLOAD,2023-10-15 12:17:12,14.98657106,0.0002381,69.9984,313.47,264.7023,95.3865,-0.0051676,-0.0006173,0.0,0 STARLINK-5894,1 55965U 23037BD  23288.51194782 -.00061730  00000-0 -51676-2 0  9991,2 55965  69.9984 313.4700 0002381 264.7023  95.3865 14.98657106 33237,6949.182,96.086,572.701,569.392,0.0
55965.0,STARLINK-5894,PAYLOAD,2023-10-15 18:41:42,14.98606337,0.0002724,69.9985,312.7965,272.6739,87.4108,-0.0044904,-0.00053645,0.0,0 STARLINK-5894,1 55965U 23037BD  23288.77895922 -.00053645  00000-0 -44904-2 0  9995,2 55965  69.9985 312.7965 0002724 272.6739  87.4108 14.98606337 33610,6949.338,96.089,573.096,569.31,0.0
